ORBCOMM FM114           
1 41179U 15081A   24357.61073121  .00001553  00000+0  37408-3 0  9997
2 41179  47.0039  40.5457 0003209 268.3807  91.6711 14.57646920478705
ORBCOMM FM110           
1 41182U 15081D   24358.34062392  .00002456  00000+0  56975-3 0  9993
2 41182  47.0022  36.4765 0001166 359.1415   0.9468 14.57676065478863
ORBCOMM FM112           
1 41184U 15081F   24358.18308990  .00002722  00000+0  62852-3 0  9991
2 41184  46.9991 306.2671 0001896 304.7390  55.3317 14.57599786480033
ORBCOMM FM113           
1 41185U 15081G   24358.22904537  .00002422  00000+0  56315-3 0  9990
2 41185  47.0007 306.3548 0001737 325.7378  34.3395 14.57601094480041
ORBCOMM FM108           
1 41187U 15081J   24358.11305870  .00001436  00000+0  34890-3 0  9993
2 41187  47.0035 218.1673 0002792 210.4098 149.6626 14.57626753481186
ORBCOMM FM117           
1 41188U 15081K   24358.07976572  .00001381  00000+0  33681-3 0  9998
2 41188  46.9996 217.1505 0003132 223.9598 136.1038 14.57626807481196
ORBCOMM FM116           
1 41189U 15081L   24358.20668881  .00002793  00000+0  64362-3 0  9993
2 41189  47.0020 306.3950 0002656 316.3383  43.7291 14.57615499480043
CHUBUSAT-2              
1 41338U 16012B   24358.11036694  .00010183  00000+0  56443-3 0  9998
2 41338  30.9994 251.2700 0010890 336.7318  23.2827 15.12470538486188
CHUBUSAT-3              
1 41339U 16012C   24358.08673577  .00009304  00000+0  53081-3 0  9990
2 41339  31.0061 251.4797 0010986 338.2861  21.7311 15.11413088486143
HORYU-4                 
1 41340U 16012D   24357.83819843  .00025525  00000+0  95019-3 0  9992
2 41340  30.9995 177.8869 0008138  96.0786 264.0784 15.26268109486897
ZIYUAN 3-2 (ZY 3-2)     
1 41556U 16033A   24358.39150727  .00015061  00000+0  66977-3 0  9990
2 41556  97.4386  71.7161 0007779  40.9277 319.2542 15.21569059475760
CARTOSAT-2C             
1 41599U 16040A   24358.38359763  .00011566  00000+0  54867-3 0  9996
2 41599  97.4496  55.1774 0013250 213.4508 146.5891 15.19356128471605
LAPAN-A3                
1 41603U 16040E   24358.49556077  .00006212  00000+0  23079-3 0  9994
2 41603  97.1392   3.9217 0012578 141.0714 219.1434 15.27816224472106
BIROS                   
1 41604U 16040F   24358.06942557  .00035141  00000+0  65235-3 0  9993
2 41604  97.1074  22.1457 0009063  80.2147 280.0128 15.48815034473303
M3MSAT                  
1 41605U 16040G   24358.02935421  .00035682  00000+0  66290-3 0  9994
2 41605  97.1047  19.2194 0009109  94.7261 265.5031 15.48789598473112
GAOFEN-3                
1 41727U 16049A   24358.48912946  .00000223  00000+0  80943-4 0  9990
2 41727  98.4052   3.3566 0001135  82.2506 277.8813 14.42218198440708
QSS (MOZI)              
1 41731U 16051A   24358.39744455  .00020935  00000+0  44276-3 0  9996
2 41731  97.3039 270.2845 0005918 259.9329 100.1252 15.45152745465835
PRATHAM                 
1 41783U 16059A   24358.00873357  .00001725  00000+0  32208-3 0  9991
2 41783  97.8287   8.5122 0032877 139.1429 221.2248 14.65800203440198
ALSAT 1N                
1 41789U 16059G   24358.47791097  .00002342  00000+0  41768-3 0  9995
2 41789  97.8158  15.2849 0028018 114.1041 246.3099 14.67632913440642
CAS-2T & KS-1Q          
1 41847U 16066G   24357.84971766  .00002235  00000+0  33075-3 0  9994
2 41847  98.4412  67.7188 0348676 328.7379  29.3483 14.42576784426687
YUNHAI-1 01             
1 41857U 16068A   24358.45874739  .00000688  00000+0  26656-3 0  9994
2 41857  98.5923   3.0923 0006485 150.5201 209.6350 14.33148513424397
RESOURCESAT-2A          
1 41877U 16074A   24358.32958278  .00000385  00000+0  19504-3 0  9998
2 41877  98.6277  67.7815 0001792 130.8666 229.2667 14.21661988417463
TANSAT                  
1 41898U 16081A   24358.45712350  .00001135  00000+0  25080-3 0  9992
2 41898  98.4945 333.1872 0020607 176.2723 183.8632 14.59155788425747
JILIN-1 03              
1 41914U 17002B   24358.38003249  .00018605  00000+0  72228-3 0  9993
2 41914  97.2086   7.8374 0006952 327.7819  32.2995 15.26112795438959
KAIDUN 1                
1 41915U 17002C   24358.39225130  .00044007  00000+0  10090-2 0  9993
2 41915  97.1819  21.7532 0002690 279.9428  80.1516 15.42613675439901
CARTOSAT-2D             
1 41948U 17008A   24358.15087321  .00010099  00000+0  48075-3 0  9996
2 41948  97.4424  53.9883 0005033 327.9749  32.1179 15.19337593435434
ZHUHAI-1 02 (CAS-4B)    
1 42759U 17034B   24358.11488726  .00046438  00000+0  10553-2 0  9991
2 42759  43.0122 229.0913 0015466 204.1597 155.8537 15.42156462416424
ZHUHAI-1 01 (CAS-4A)    
1 42761U 17034D   24358.48210721  .00048669  00000+0  10921-2 0  9999
2 42761  43.0161 225.0824 0016575 213.7602 146.2201 15.42497155416498
CARTOSAT-2E             
1 42767U 17036C   24358.36567909  .00010699  00000+0  50841-3 0  9995
2 42767  97.4138  54.5784 0003399  41.2921 318.8570 15.19387145416036
D-SAT                   
1 42794U 17036AF  24357.92738583  .00011373  00000+0  70146-3 0  9994
2 42794  97.4981 333.6382 0098758 224.8324 134.4894 15.06040600409105
IRIDIUM 113             
1 42803U 17039A   24358.04596287  .00000174  00000+0  55121-4 0  9999
2 42803  86.3991 188.2988 0002286  78.2940 281.8513 14.34218298393620
NORSAT 2                
1 42828U 17042D   24358.06899719  .00016445  00000+0  10869-2 0  9994
2 42828  97.3759 175.6601 0013713 126.6536 233.5955 15.07385620405790
TECHNOSAT               
1 42829U 17042E   24358.49154006  .00007989  00000+0  65284-3 0  9990
2 42829  97.3857 169.4179 0013541 147.8536 212.3516 14.99555422405512
FLYING LAPTOP           
1 42831U 17042G   24358.13080405  .00005365  00000+0  46796-3 0  9998
2 42831  97.3891 168.4755 0012496 156.2965 203.8836 14.97177210405388
WNISAT 1R               
1 42835U 17042L   24358.39146536  .00004540  00000+0  39409-3 0  9995
2 42835  97.3884 168.6146 0011896 150.8929 209.2959 14.97447237405456
LEMUR-2-GREENBERG       
1 42837U 17042N   24357.45930770  .00019318  00000+0  11289-2 0  9998
2 42837  97.3591 178.2058 0013989 104.1006 256.1780 15.11847035406018
LEMUR-2-FURIAUS         
1 42840U 17042R   24357.97588601  .00019249  00000+0  11774-2 0  9993
2 42840  97.3608 178.1116 0011920 150.8240 209.3658 15.10214588406009
CORVUS BC2              
1 42846U 17042X   24357.75441707  .00006537  00000+0  51924-3 0  9998
2 42846  97.3672 172.7673 0012450 138.1943 222.0235 15.00724321405699
CORVUS BC1              
1 42847U 17042Y   24358.02994378  .00007450  00000+0  58877-3 0  9996
2 42847  97.3677 173.4456 0012051 111.8089 248.4419 15.00877688405756
VRSS-2                  
1 42954U 17060A   24358.43911709  .00002372  00000+0  32235-3 0  9995
2 42954  97.7293  47.6028 0018956  67.5459 292.7758 14.79590973388446
MOHAMMED VI-A           
1 43005U 17070A   24358.49481770  .00002085  00000+0  30265-3 0  9992
2 43005  97.9569  67.5723 0001412  83.8730 276.2641 14.77056993384167
FENGYUN 3D              
1 43010U 17072A   24358.50146442  .00000303  00000+0  16553-3 0  9991
2 43010  98.9388 314.5257 0002058 127.8655 232.2707 14.19525632368278
CZ-4C R/B               
1 43012U 17072C   24358.20613675  .00000875  00000+0  18274-3 0  9993
2 43012  98.5860  78.0646 0124500  17.9531 342.6006 14.57918199377784
NOAA 20 (JPSS-1)        
1 43013U 17073A   24358.38053991  .00000233  00000+0  13115-3 0  9990
2 43013  98.7262 293.2691 0002037  61.1689 298.9691 14.19523370367748
MIRATA                  
1 43015U 17073C   24358.22066490  .00065198  00000+0  20493-2 0  9990
2 43015  97.5657 242.5127 0127625 328.6072  30.7591 15.25091354384957
MAKERSAT 0              
1 43016U 17073D   24358.17139913  .00028440  00000+0  13503-2 0  9999
2 43016  97.5441 232.6242 0168803   0.9982 359.1550 15.07408507384281
RADFXSAT (FOX-1B)       
1 43017U 17073E   24358.10587174  .00017123  00000+0  94369-3 0  9995
2 43017  97.5475 227.3673 0191458  19.1846 341.6459 14.99681393383910
EAGLESAT 1              
1 43018U 17073F   24358.37074721  .00063194  00000+0  20700-2 0  9990
2 43018  97.5660 242.1721 0132204 333.9760  25.4868 15.23325333384719
JILIN-1 04              
1 43022U 17074A   24358.39154948  .00017430  00000+0  66543-3 0  9996
2 43022  97.4824  89.6277 0005035 337.8934  22.2087 15.26699914391338
JILIN-1 05              
1 43023U 17074B   24358.55399859  .00011201  00000+0  44922-3 0  9994
2 43023  97.4852  90.1722 0005712 355.3054   4.8129 15.25157122391356
JILIN-1 06              
1 43024U 17074C   24358.50188863  .00012264  00000+0  52660-3 0  9999
2 43024  97.4839  88.1253 0008387   1.1817 358.9437 15.22812196391229
IRIDIUM 116             
1 43072U 17083C   24358.09035970  .00000085  00000+0  23223-4 0  9998
2 43072  86.3985 188.1448 0001924  95.2437 264.8979 14.34217955366615
IRIDIUM 130             
1 43073U 17083D   24358.05864672  .00000142  00000+0  43750-4 0  9995
2 43073  86.3993 188.3804 0001788  89.8002 270.3399 14.34218392366555
LKW-2                   
1 43080U 17084A   24358.46345841  .00013434  00000+0  55695-3 0  9999
2 43080  97.1981  51.6351 0004617 113.8696 246.3026 15.23988838389339
SUPERVIEW-1 03          
1 43099U 18002A   24358.45437250  .00018973  00000+0  82256-3 0  9991
2 43099  97.3567  79.4367 0069016 303.2315  56.2317 15.20226796385706
SUPERVIEW-1 04          
1 43100U 18002B   24358.50340989  .00088159  00000+0  11499-2 0  9995
2 43100  97.3598  82.2895 0000755 179.3753 180.7504 15.58405634385874
CARTOSAT-2F             
1 43111U 18004A   24358.39839749  .00010566  00000+0  50286-3 0  9998
2 43111  97.4602  54.6516 0000422  26.9836 333.1421 15.19344293385227
CARBONITE 2             
1 43115U 18004E   24358.17423445  .00060749  00000+0  75524-3 0  9990
2 43115  97.2422  70.3263 0004160 295.5494  64.5333 15.59776519387201
LKW-3                   
1 43146U 18006A   24358.48566663  .00016888  00000+0  72320-3 0  9996
2 43146  97.5933 134.8522 0003328 210.9839 149.1201 15.22856481386118
